NORAD_CAT_ID,OBJECT_NAME,OBJECT_TYPE,EPOCH,MEAN_MOTION,ECCENTRICITY,INCLINATION,RA_OF_ASC_NODE,ARG_OF_PERICENTER,MEAN_ANOMALY,BSTAR,MEAN_MOTION_DOT,MEAN_MOTION_DDOT,TLE_LINE0,TLE_LINE1,TLE_LINE2,SEMIMAJOR_AXIS,PERIOD,APOGEE,PERIGEE,DECAYED
53023.0,STARLINK-4284,PAYLOAD,2022-11-02 18:00:02,15.08842751,0.0001425,53.2171,174.0977,65.9712,1.5686,-0.00058498,-9.587e-05,0.0,0 STARLINK-4284,1 53023U 22076AP  22306.75002315 -.00009587  00000-0 -58498-3 0  9994,2 53023  53.2171 174.0977 0001425  65.9712   1.5686 15.08842751 18838,6917.871999999999,95.437,540.7230000000002,538.751,0.0
53023.0,STARLINK-4284,PAYLOAD,2022-11-03 01:39:06,15.08829816,0.0001418,53.2173,172.6645,65.054,295.0599,0.00011499,1.542e-05,0.0,0 STARLINK-4284,1 53023U 22076AP  22307.06882213  .00001542  00000-0  11499-3 0  9993,2 53023  53.2173 172.6645 0001418  65.0540 295.0599 15.08829816 18412,6917.9119999999975,95.438,540.757,538.7959999999998,0.0
53023.0,STARLINK-4284,PAYLOAD,2022-11-03 17:32:56,15.08851727,0.000205,53.215,169.6907,55.2452,304.8732,8.753399999999999e-05,1.106e-05,0.0,0 STARLINK-4284,1 53023U 22076AP  22307.73120995  .00001106  00000-0  87534-4 0  9999,2 53023  53.2150 169.6907 0002050  55.2452 304.8732 15.08851727 18986,6917.845,95.437,541.128,538.2909999999998,0.0
53023.0,STARLINK-4284,PAYLOAD,2022-11-04 07:51:22,15.08892771,0.0001564,53.2189,167.0162,56.9399,303.1744,-0.00040952,-6.809e-05,0.0,0 STARLINK-4284,1 53023U 22076AP  22308.32734906 -.00006809  00000-0 -40952-3 0  9997,2 53023  53.2189 167.0162 0001564  56.9399 303.1744 15.08892771 19070,6917.719,95.434,540.6659999999998,538.502,0.0
53023.0,STARLINK-4284,PAYLOAD,2022-11-04 14:12:56,15.08852768,0.0001683,53.2141,165.8274,64.5791,295.5375,0.00017103,2.436e-05,0.0,0 STARLINK-4284,1 53023U 22076AP  22308.59232371  .00002436  00000-0  17103-3 0  9997,2 53023  53.2141 165.8274 0001683  64.5791 295.5375 15.08852768 18649,6917.840999999999,95.437,540.871,538.5419999999998,0.0
53023.0,STARLINK-4284,PAYLOAD,2022-11-04 17:23:43,15.08844321,0.0001446,53.2168,165.2308,63.734,296.38,0.0001522,2.135e-05,0.0,0 STARLINK-4284,1 53023U 22076AP  22308.72480758  .00002135  00000-0  15220-3 0  9990,2 53023  53.2168 165.2308 0001446  63.7340 296.3800 15.08844321 19131,6917.8669999999975,95.437,540.7330000000002,538.732,0.0
53023.0,STARLINK-4284,PAYLOAD,2022-11-05 07:42:12,15.08837104,0.0001364,53.2178,162.5544,58.6587,301.4539,4.0416e-05,3.55e-06,0.0,0 STARLINK-4284,1 53023U 22076AP  22309.32097520  .00000355  00000-0  40416-4 0  9996,2 53023  53.2178 162.5544 0001364  58.6587 301.4539 15.08837104 18754,6917.889,95.438,540.698,538.811,0.0
53023.0,STARLINK-4284,PAYLOAD,2022-11-05 20:25:18,15.08826738,0.0001922,53.213,160.1716,66.4294,293.69,-0.00017697,-3.103e-05,0.0,0 STARLINK-4284,1 53023U 22076AP  22309.85091041 -.00003103  00000-0 -17697-3 0  9996,2 53023  53.2130 160.1716 0001922  66.4294 293.6900 15.08826738 19306,6917.920999999999,95.438,541.116,538.456,0.0
53023.0,STARLINK-4284,PAYLOAD,2022-11-06 07:33:01,15.08824622,0.000161,53.216,158.092,69.0671,291.0493,-0.00014419,-2.581e-05,0.0,0 STARLINK-4284,1 53023U 22076AP  22310.31459496 -.00002581  00000-0 -14419-3 0  9999,2 53023  53.2160 158.0920 0001610  69.0671 291.0493 15.08824622 18908,6917.927,95.439,540.906,538.679,0.0
53023.0,STARLINK-4284,PAYLOAD,2022-11-07 07:23:48,15.08826019,0.0001597,53.2172,153.6328,63.7378,296.3778,4.93e-05,4.96e-06,0.0,0 STARLINK-4284,1 53023U 22076AP  22311.30820086  .00000496  00000-0  49300-4 0  9995,2 53023  53.2172 153.6328 0001597  63.7378 296.3778 15.08826019 19528,6917.9230000000025,95.438,540.893,538.683,0.0
53023.0,STARLINK-4284,PAYLOAD,2022-11-07 15:20:44,15.0882125,0.0001691,53.2171,152.1461,65.0306,295.0861,0.00019934,2.884e-05,0.0,0 STARLINK-4284,1 53023U 22076AP  22311.63940521  .00002884  00000-0  19934-3 0  9990,2 53023  53.2171 152.1461 0001691  65.0306 295.0861 15.08821250 19105,6917.938,95.439,540.9730000000002,538.633,0.0
53023.0,STARLINK-4284,PAYLOAD,2022-11-07 23:17:40,15.08828607,0.0001788,53.2171,150.6604,62.4793,297.6381,0.00028464,4.244e-05,0.0,0 STARLINK-4284,1 53023U 22076AP  22311.97060406  .00004244  00000-0  28464-3 0  9992,2 53023  53.2171 150.6604 0001788  62.4793 297.6381 15.08828607 19158,6917.915,95.438,541.0169999999998,538.543,0.0
53023.0,STARLINK-4284,PAYLOAD,2022-11-08 19:57:40,15.08853954,0.0001767,53.2162,146.7943,65.2832,294.8344,0.00043558,6.654e-05,0.0,0 STARLINK-4284,1 53023U 22076AP  22312.83171841  .00006654  00000-0  43558-3 0  9992,2 53023  53.2162 146.7943 0001767  65.2832 294.8344 15.08853954 19287,6917.8380000000025,95.437,540.925,538.48,0.0
53023.0,STARLINK-4284,PAYLOAD,2022-11-08 23:08:26,15.08861485,0.0001786999999999,53.2159,146.1994,65.2354,294.8824,0.0005031,7.733e-05,0.0,0 STARLINK-4284,1 53023U 22076AP  22312.96419597  .00007733  00000-0  50310-3 0  9992,2 53023  53.2159 146.1994 0001787  65.2354 294.8824 15.08861485 19779,6917.815,95.436,540.9159999999998,538.444,0.0
53023.0,STARLINK-4284,PAYLOAD,2022-11-09 19:48:26,15.08861655,0.0001845,53.2158,142.3337,68.0596,292.0592,0.00020337,2.952e-05,0.0,0 STARLINK-4284,1 53023U 22076AP  22313.82530726  .00002952  00000-0  20337-3 0  9990,2 53023  53.2158 142.3337 0001845  68.0596 292.0592 15.08861655 19907,6917.814,95.436,540.956,538.403,0.0
53023.0,STARLINK-4284,PAYLOAD,2022-11-10 00:34:35,15.08847927,0.000188,53.2158,141.441,62.6481,297.4702,-0.00021406,-3.694e-05,0.0,0 STARLINK-4284,1 53023U 22076AP  22314.02402744 -.00003694  00000-0 -21406-3 0  9995,2 53023  53.2158 141.4410 0001880  62.6481 297.4702 15.08847927 19932,6917.856,95.437,541.0219999999998,538.4209999999998,0.0
53023.0,STARLINK-4284,PAYLOAD,2022-11-10 19:39:13,15.08846692,0.0001733,53.2162,137.8724,65.9199,294.1975,-6.9931e-05,-1.401e-05,0.0,0 STARLINK-4284,1 53023U 22076AP  22314.81890568 -.00001401  00000-0 -69931-4 0  9997,2 53023  53.2162 137.8724 0001733  65.9199 294.1975 15.08846692 19588,6917.86,95.437,540.924,538.526,0.0
53023.0,STARLINK-4284,PAYLOAD,2022-11-11 00:25:22,15.08846186,0.0001715,53.2161,136.9803,63.6057,296.5111,-3.6237e-05,-8.65e-06,0.0,0 STARLINK-4284,1 53023U 22076AP  22315.01762530 -.00000865  00000-0 -36237-4 0  9993,2 53023  53.2161 136.9803 0001715  63.6057 296.5111 15.08846186 19613,6917.861,95.437,540.913,538.54,0.0
53023.0,STARLINK-4284,PAYLOAD,2022-11-11 19:30:02,15.08805996,0.0002113,53.2164,133.4122,67.8538,292.2678,0.0016312,0.00025744,0.0,0 STARLINK-4284,1 53023U 22076AP  22315.81253060  .00025744  00000-0  16312-2 0  9995,2 53023  53.2164 133.4122 0002113  67.8538 292.2678 15.08805996 20207,6917.984,95.44,541.311,538.388,0.0
53023.0,STARLINK-4284,PAYLOAD,2022-11-12 05:02:18,15.08855701,0.0001636,53.2162,131.6277,63.2407,296.8753,0.00030213,4.526e-05,0.0,0 STARLINK-4284,1 53023U 22076AP  22316.20993775  .00004526  00000-0  30213-3 0  9995,2 53023  53.2162 131.6277 0001636  63.2407 296.8753 15.08855701 20269,6917.831999999999,95.437,540.8290000000002,538.566,0.0
53023.0,STARLINK-4284,PAYLOAD,2022-11-12 11:23:50,15.08857914,0.000166,53.2161,130.4384,62.339,297.777,0.00030487,4.57e-05,0.0,0 STARLINK-4284,1 53023U 22076AP  22316.47489499  .00004570  00000-0  30487-3 0  9999,2 53023  53.2161 130.4384 0001660  62.3390 297.7770 15.08857914 19830,6917.826,95.436,540.839,538.5419999999998,0.0
53023.0,STARLINK-4284,PAYLOAD,2022-11-12 17:45:24,15.08843958,0.0001617,53.2166,129.2487,63.7461,296.3698,5.1638e-05,5.34e-06,0.0,0 STARLINK-4284,1 53023U 22076AP  22316.73986141  .00000534  00000-0  51638-4 0  9992,2 53023  53.2166 129.2487 0001617  63.7461 296.3698 15.08843958 20346,6917.868,95.437,540.852,538.615,0.0
53023.0,STARLINK-4284,PAYLOAD,2022-11-12 19:20:47,15.08842919,0.0001616,53.2167,128.9515,63.9269,296.189,2.6092e-05,1.27e-06,0.0,0 STARLINK-4284,1 53023U 22076AP  22316.80610139  .00000127  00000-0  26092-4 0  9995,2 53023  53.2167 128.9515 0001616  63.9269 296.1890 15.08842919 19887,6917.871,95.437,540.854,538.619,0.0
53023.0,STARLINK-4284,PAYLOAD,2022-11-13 00:06:56,15.0884366,0.0001625,53.2167,128.0593,63.0212,297.0946,2.8503e-05,1.66e-06,0.0,0 STARLINK-4284,1 53023U 22076AP  22317.00482039  .00000166  00000-0  28503-4 0  9996,2 53023  53.2167 128.0593 0001625  63.0212 297.0946 15.08843660 19913,6917.869000000002,95.437,540.8580000000002,538.61,0.0
53023.0,STARLINK-4284,PAYLOAD,2022-11-13 17:36:11,15.08838897,0.0001603,53.2169,124.7882,64.6828,295.433,-7.076100000000001e-05,-1.414e-05,0.0,0 STARLINK-4284,1 53023U 22076AP  22317.73346186 -.00001414  00000-0 -70761-4 0  9990,2 53023  53.2169 124.7882 0001603  64.6828 295.4330 15.08838897 20024,6917.884,95.438,540.8580000000002,538.64,0.0
53023.0,STARLINK-4284,PAYLOAD,2022-11-14 04:43:53,15.08838244,0.0001592,53.2178,122.7071,62.0157,298.0996,-2.2457e-05,-6.45e-06,0.0,0 STARLINK-4284,1 53023U 22076AP  22318.19714673 -.00000645  00000-0 -22457-4 0  9995,2 53023  53.2178 122.7071 0001592  62.0157 298.0996 15.08838244 20568,6917.886,95.438,540.852,538.649,0.0
53023.0,STARLINK-4284,PAYLOAD,2022-11-14 17:26:58,15.08839589,0.0001486999999999,53.2177,120.3281,59.9517,300.1622,5.0208e-05,5.11e-06,0.0,0 STARLINK-4284,1 53023U 22076AP  22318.72706376  .00000511  00000-0  50208-4 0  9990,2 53023  53.2177 120.3281 0001487  59.9517 300.1622 15.08839589 20173,6917.882,95.438,540.775,538.7180000000002,0.0
53023.0,STARLINK-4284,PAYLOAD,2022-11-15 12:31:35,15.08845538,0.0001494,53.2177,116.7598,58.1753,301.9384,9.8746e-05,1.284e-05,0.0,0 STARLINK-4284,1 53023U 22076AP  22319.52193809  .00001284  00000-0  98746-4 0  9997,2 53023  53.2177 116.7598 0001494  58.1753 301.9384 15.08845538 20292,6917.863,95.437,540.762,538.695,0.0
53023.0,STARLINK-4284,PAYLOAD,2022-11-15 15:42:21,15.08840595,0.0001496999999999,53.2176,116.1651,58.716,301.3979,0.00017675,2.526e-05,0.0,0 STARLINK-4284,1 53023U 22076AP  22319.65441945  .00002526  00000-0  17675-3 0  9999,2 53023  53.2176 116.1651 0001497  58.7160 301.3979 15.08840595 20782,6917.879,95.438,540.779,538.7080000000002,0.0
